COSMOS 2251 DEB         
1 36470U 93036BBV 17340.04409396  .00000954  00000-0  25744-3 0  9994
2 36470  73.8685 124.0528 0066228 186.3527 173.6800 14.48074139429143
